NORAD_CAT_ID,OBJECT_NAME,OBJECT_TYPE,EPOCH,MEAN_MOTION,ECCENTRICITY,INCLINATION,RA_OF_ASC_NODE,ARG_OF_PERICENTER,MEAN_ANOMALY,BSTAR,MEAN_MOTION_DOT,MEAN_MOTION_DDOT,TLE_LINE0,TLE_LINE1,TLE_LINE2,SEMIMAJOR_AXIS,PERIOD,APOGEE,PERIGEE,DECAYED
53184.0,STARLINK-4257,PAYLOAD,2023-06-14 16:55:40,15.08841799,0.0001035,53.2178,288.3228,87.8735,272.2375,4.0297e-05,3.54e-06,0.0,0 STARLINK-4257,1 53184U 22083BE  23165.70533385  .00000354  00000-0  40297-4 0  9995,2 53184  53.2178 288.3228 0001035  87.8735 272.2375 15.08841799 51746,6917.875,95.437,540.456,539.024,0.0
53184.0,STARLINK-4257,PAYLOAD,2023-06-14 18:31:03,15.08843304,0.0001034,53.2177,288.0248,92.2126,267.8985,4.9781e-05,5.05e-06,0.0,0 STARLINK-4257,1 53184U 22083BE  23165.77157227  .00000505  00000-0  49781-4 0  9994,2 53184  53.2177 288.0248 0001034  92.2126 267.8985 15.08843304 51120,6917.87,95.437,540.451,539.02,0.0
53184.0,STARLINK-4257,PAYLOAD,2023-06-15 00:52:36,15.08833636,8.1e-05,53.2167,286.8339,79.1909,280.9174,2.6641e-05,1.36e-06,0.0,0 STARLINK-4257,1 53184U 22083BE  23166.03653908  .00000136  00000-0  26641-4 0  9991,2 53184  53.2167 286.8339 0000810  79.1909 280.9174 15.08833636 51796,6917.9,95.438,540.325,539.204,0.0
53184.0,STARLINK-4257,PAYLOAD,2023-06-15 08:49:33,15.08827691,9.32e-05,53.2165,285.3478,94.2457,265.8642,2.0137e-06,-2.56e-06,0.0,0 STARLINK-4257,1 53184U 22083BE  23166.36774570 -.00000256  00000-0  20137-5 0  9995,2 53184  53.2165 285.3478 0000932  94.2457 265.8642 15.08827691 51845,6917.918,95.438,540.428,539.138,0.0
53184.0,STARLINK-4257,PAYLOAD,2023-06-15 13:35:42,15.08831239,9.26e-05,53.2168,284.4557,96.1303,263.9795,2.1449e-05,5.4e-07,0.0,0 STARLINK-4257,1 53184U 22083BE  23166.56646379  .00000054  00000-0  21449-4 0  9993,2 53184  53.2168 284.4557 0000926  96.1303 263.9795 15.08831239 51245,6917.907,95.438,540.413,539.132,0.0
53184.0,STARLINK-4257,PAYLOAD,2023-06-16 00:43:23,15.0883973,0.0001086,53.2176,282.3746,94.4627,265.649,6.6106e-05,7.64e-06,0.0,0 STARLINK-4257,1 53184U 22083BE  23167.03013850  .00000764  00000-0  66106-4 0  9995,2 53184  53.2176 282.3746 0001086  94.4627 265.6490 15.08839730 51941,6917.881,95.438,540.497,538.995,0.0
53184.0,STARLINK-4257,PAYLOAD,2023-06-16 08:40:19,15.08846068,9.62e-05,53.2168,280.8875,90.8748,269.2355,0.00014351,1.997e-05,0.0,0 STARLINK-4257,1 53184U 22083BE  23167.36133183  .00001997  00000-0  14351-3 0  9996,2 53184  53.2168 280.8875 0000962  90.8748 269.2355 15.08846068 51991,6917.862,95.437,540.392,539.061,0.0
53184.0,STARLINK-4257,PAYLOAD,2023-06-16 11:51:04,15.08853137,0.0001055,53.2177,280.2933,93.3742,266.7371,0.00018516,2.661e-05,0.0,0 STARLINK-4257,1 53184U 22083BE  23167.49380631  .00002661  00000-0  18516-3 0  9998,2 53184  53.2177 280.2933 0001055  93.3742 266.7371 15.08853137 51384,6917.84,95.437,540.435,538.975,0.0
53184.0,STARLINK-4257,PAYLOAD,2023-06-16 13:26:28,15.0884678,0.0001936,53.2177,279.9956,103.859,256.2618,0.00034595,5.223e-05,0.0,0 STARLINK-4257,1 53184U 22083BE  23167.56004698  .00005223  00000-0  34595-3 0  9994,2 53184  53.2177 279.9956 0001936 103.8590 256.2618 15.08846780 52026,6917.86,95.437,541.064,538.385,0.0
53184.0,STARLINK-4257,PAYLOAD,2023-06-16 16:37:13,15.08861843,9.61e-05,53.2174,279.401,86.1951,273.9151,0.00022555,3.306e-05,0.0,0 STARLINK-4257,1 53184U 22083BE  23167.69251933  .00003306  00000-0  22555-3 0  9997,2 53184  53.2174 279.4010 0000961  86.1951 273.9151 15.08861843 51417,6917.814,95.436,540.343,539.014,0.0
53184.0,STARLINK-4257,PAYLOAD,2023-06-17 00:34:10,15.0883998,0.000174,53.2169,277.9138,75.4067,284.7118,9.8588e-05,1.281e-05,0.0,0 STARLINK-4257,1 53184U 22083BE  23168.02373696  .00001281  00000-0  98588-4 0  9996,2 53184  53.2169 277.9138 0001740  75.4067 284.7118 15.08839980 52095,6917.88,95.438,540.949,538.542,0.0
53184.0,STARLINK-4257,PAYLOAD,2023-06-17 13:17:15,15.0884645,0.0001688,53.2173,275.5357,73.2232,286.8945,0.00013133,1.803e-05,0.0,0 STARLINK-4257,1 53184U 22083BE  23168.55365290  .00001803  00000-0  13133-3 0  9997,2 53184  53.2173 275.5357 0001688  73.2232 286.8945 15.08846450 51548,6917.861,95.437,540.893,538.558,0.0
53184.0,STARLINK-4257,PAYLOAD,2023-06-17 16:28:01,15.08845727,0.0001047,53.2159,274.94,69.9956,290.1149,0.00011954,1.615e-05,0.0,0 STARLINK-4257,1 53184U 22083BE  23168.68613240  .00001615  00000-0  11954-3 0  9992,2 53184  53.2159 274.9400 0001047  69.9956 290.1149 15.08845727 51560,6917.863,95.437,540.452,539.004,0.0
53184.0,STARLINK-4257,PAYLOAD,2023-06-18 06:46:30,15.0883047,0.0001145,53.2153,272.2647,62.4894,297.6215,-2.8501e-05,-7.41e-06,0.0,0 STARLINK-4257,1 53184U 22083BE  23169.28229811 -.00000741  00000-0 -28501-4 0  9994,2 53184  53.2153 272.2647 0001145  62.4894 297.6215 15.08830470 52281,6917.91,95.438,540.567,538.982,0.0
53184.0,STARLINK-4257,PAYLOAD,2023-06-18 13:08:03,15.08835213,0.0001128,53.2157,271.0755,64.7702,295.3407,5.7622e-05,6.29e-06,0.0,0 STARLINK-4257,1 53184U 22083BE  23169.54725877  .00000629  00000-0  57622-4 0  9995,2 53184  53.2157 271.0755 0001128  64.7702 295.3407 15.08835213 51698,6917.895,95.438,540.54,538.98,0.0
53184.0,STARLINK-4257,PAYLOAD,2023-06-19 12:58:50,15.0884356,0.000109,53.2147,266.6144,63.9799,296.1305,0.00032167,4.836e-05,0.0,0 STARLINK-4257,1 53184U 22083BE  23170.54086001  .00004836  00000-0  32167-3 0  9996,2 53184  53.2147 266.6144 0001090  63.9799 296.1305 15.08843560 52471,6917.87,95.437,540.489,538.98,0.0
53184.0,STARLINK-4257,PAYLOAD,2023-06-20 06:28:05,15.08836075,0.0001142,53.2154,263.3429,74.2632,285.8486,0.00019385,2.798e-05,0.0,0 STARLINK-4257,1 53184U 22083BE  23171.26950466  .00002798  00000-0  19385-3 0  9993,2 53184  53.2154 263.3429 0001142  74.2632 285.8486 15.08836075 52588,6917.892,95.438,540.547,538.967,0.0
53184.0,STARLINK-4257,PAYLOAD,2023-06-20 12:49:37,15.08837724,0.0001126,53.2154,262.1531,77.3716,282.7402,0.00026989,4.01e-05,0.0,0 STARLINK-4257,1 53184U 22083BE  23171.53446480  .00004010  00000-0  26989-3 0  9996,2 53184  53.2154 262.1531 0001126  77.3716 282.7402 15.08837724 51998,6917.887,95.438,540.531,538.973,0.0
53184.0,STARLINK-4257,PAYLOAD,2023-06-21 12:40:24,15.0884702,0.0001025,53.2154,257.6935,72.57,287.5404,0.00012368,1.681e-05,0.0,0 STARLINK-4257,1 53184U 22083BE  23172.52805911  .00001681  00000-0  12368-3 0  9991,2 53184  53.2154 257.6935 0001025  72.5700 287.5404 15.08847020 52775,6917.859,95.437,540.433,539.015,0.0
53184.0,STARLINK-4257,PAYLOAD,2023-06-21 22:12:43,15.08838424,0.0001041,53.2148,255.9096,69.3929,290.7175,-1.8296e-05,-5.79e-06,0.0,0 STARLINK-4257,1 53184U 22083BE  23172.92550266 -.00000579  00000-0 -18296-4 0  9999,2 53184  53.2148 255.9096 0001041  69.3929 290.7175 15.08838424 52838,6917.885,95.438,540.47,539.03,0.0
53184.0,STARLINK-4257,PAYLOAD,2023-06-23 09:11:12,15.08848897,0.0001046,53.216,249.3683,92.6229,267.4882,0.00018999,2.738e-05,0.0,0 STARLINK-4257,1 53184U 22083BE  23174.38278091  .00002738  00000-0  18999-3 0  9990,2 53184  53.2160 249.3683 0001046  92.6229 267.4882 15.08848897 53054,6917.853,95.437,540.442,538.995,0.0
53184.0,STARLINK-4257,PAYLOAD,2023-06-24 05:51:13,15.08842033,0.0001251,53.2147,245.5011,105.0288,255.0843,9.3992e-05,1.208e-05,0.0,0 STARLINK-4257,1 53184U 22083BE  23175.24390339  .00001208  00000-0  93992-4 0  9994,2 53184  53.2147 245.5011 0001251 105.0288 255.0843 15.08842033 53184,6917.874,95.437,540.605,538.874,0.0
53184.0,STARLINK-4257,PAYLOAD,2023-06-25 10:28:09,15.08845481,0.0001154,53.2147,240.1489,84.0257,276.0866,0.00026457,3.926e-05,0.0,0 STARLINK-4257,1 53184U 22083BE  23176.43622523  .00003926  00000-0  26457-3 0  9999,2 53184  53.2147 240.1489 0001154  84.0257 276.0866 15.08845481 53366,6917.864,95.437,540.527,538.93,0.0
53184.0,STARLINK-4257,PAYLOAD,2023-06-26 08:43:33,15.08842481,0.0001132,53.2146,235.9866,80.5394,279.5726,-0.00022885,-3.928e-05,0.0,0 STARLINK-4257,1 53184U 22083BE  23177.36358544 -.00003928  00000-0 -22885-3 0  9996,2 53184  53.2146 235.9866 0001132  80.5394 279.5726 15.08842481 53501,6917.873,95.437,540.521,538.955,0.0
53184.0,STARLINK-4257,PAYLOAD,2023-06-27 10:09:44,15.08841023,0.0001161,53.2155,231.2276,91.3019,268.8106,3.6147e-05,2.88e-06,0.0,0 STARLINK-4257,1 53184U 22083BE  23178.42342853  .00000288  00000-0  36147-4 0  9991,2 53184  53.2155 231.2276 0001161  91.3019 268.8106 15.08841023 53662,6917.877,95.437,540.545,538.939,0.0
53184.0,STARLINK-4257,PAYLOAD,2023-06-28 14:46:40,15.08841004,0.0001127,53.2155,225.8748,89.4041,270.708,8.9771e-05,1.141e-05,0.0,0 STARLINK-4257,1 53184U 22083BE  23179.61574769  .00001141  00000-0  89771-4 0  9996,2 53184  53.2155 225.8748 0001127  89.4041 270.7080 15.08841004 53842,6917.877,95.437,540.522,538.963,0.0
53184.0,STARLINK-4257,PAYLOAD,2023-06-29 08:15:55,15.08835104,0.0001316,53.2159,222.6016,109.1667,250.9467,1.7706e-05,-6e-08,0.0,0 STARLINK-4257,1 53184U 22083BE  23180.34439481 -.00000006  00000-0  17706-4 0  9998,2 53184  53.2159 222.6016 0001316 109.1667 250.9467 15.08835104 53958,6917.895,95.438,540.671,538.85,0.0
53184.0,STARLINK-4257,PAYLOAD,2023-06-30 11:17:28,15.08841816,0.0001232,53.2155,217.5488,110.3683,249.7442,8.5946e-05,1.08e-05,0.0,0 STARLINK-4257,1 53184U 22083BE  23181.47046978  .00001080  00000-0  85946-4 0  9991,2 53184  53.2155 217.5488 0001232 110.3683 249.7442 15.08841816 54125,6917.875,95.437,540.592,538.888,0.0
53184.0,STARLINK-4257,PAYLOAD,2023-06-30 19:14:24,15.08832888,0.0001107,53.2153,216.0619,104.5308,255.5807,0.00013033,1.787e-05,0.0,0 STARLINK-4257,1 53184U 22083BE  23181.80167484  .00001787  00000-0  13033-3 0  9995,2 53184  53.2153 216.0619 0001107 104.5308 255.5807 15.08832888 54177,6917.902,95.438,540.533,539.001,0.0
53184.0,STARLINK-4257,PAYLOAD,2023-07-01 14:19:02,15.08832579,0.000107,53.2155,212.4935,90.5046,269.6069,1.8136e-05,1e-08,0.0,0 STARLINK-4257,1 53184U 22083BE  23182.59656122  .00000001  00000-0  18136-4 0  9992,2 53184  53.2155 212.4935 0001070  90.5046 269.6069 15.08832579 54298,6917.903,95.438,540.508,539.028,0.0
